NORAD_CAT_ID,OBJECT_NAME,OBJECT_TYPE,EPOCH,MEAN_MOTION,ECCENTRICITY,INCLINATION,RA_OF_ASC_NODE,ARG_OF_PERICENTER,MEAN_ANOMALY,BSTAR,MEAN_MOTION_DOT,MEAN_MOTION_DDOT,TLE_LINE0,TLE_LINE1,TLE_LINE2,SEMIMAJOR_AXIS,PERIOD,APOGEE,PERIGEE,DECAYED
52577.0,STARLINK-3836,PAYLOAD,2022-05-18 18:00:00,15.82805612,0.0001176,53.2179,269.3532,52.6889,293.3608,-0.0045213,-0.00883455,0.0,0 STARLINK-3836,1 52577U 22051AT  22138.75001157 -.00883455  00000-0 -45213-2 0  9990,2 52577  53.2179 269.3532 0001176  52.6889 293.3608 15.82805612  1301,6700.648,90.978,323.301,321.725,0.0
52577.0,STARLINK-3836,PAYLOAD,2022-05-19 14:00:01,15.81229968,0.0001593,53.2173,265.1744,32.2567,22.6431,-0.004847,-0.00879904,0.0,0 STARLINK-3836,1 52577U 22051AT  22139.58335648 -.00879904  00000-0 -48470-2 0  9999,2 52577  53.2173 265.1744 0001593  32.2567  22.6431 15.81229968  1304,6705.098000000001,91.068,328.031,325.895,0.0
52577.0,STARLINK-3836,PAYLOAD,2022-05-19 22:00:00,15.80600261,0.0001409999999999,53.2173,263.506,44.1738,108.85,-0.0049878,-0.00879292,0.0,0 STARLINK-3836,1 52577U 22051AT  22139.91667824 -.00879292  00000-0 -49878-2 0  9993,2 52577  53.2173 263.5060 0001410  44.1738 108.8500 15.80600261  1488,6706.879,91.105,329.69,327.798,0.0
52577.0,STARLINK-3836,PAYLOAD,2022-05-20 14:00:01,15.79341715,0.0001672,53.2176,260.1737,29.9258,317.2084,-0.0052813,-0.00878691,0.0,0 STARLINK-3836,1 52577U 22051AT  22140.58334491 -.00878691  00000-0 -52813-2 0  9994,2 52577  53.2176 260.1737 0001672  29.9258 317.2084 15.79341715  1301,6710.441999999999,91.177,333.4290000000001,331.185,0.0
52577.0,STARLINK-3836,PAYLOAD,2022-05-20 22:00:00,15.78711699,0.0001639,53.2171,258.5097,30.6478,52.4077,-0.0054228,-0.00876815,0.0,0 STARLINK-3836,1 52577U 22051AT  22140.91667824 -.00876815  00000-0 -54228-2 0  9998,2 52577  53.2171 258.5097 0001639  30.6478  52.4077 15.78711699  1640,6712.227,91.214,335.19199999999995,332.992,0.0
52577.0,STARLINK-3836,PAYLOAD,2022-05-21 06:00:00,15.78082299,0.0001785,53.2172,256.8457,33.0698,145.1516,-0.0055806,-0.00876948,0.0,0 STARLINK-3836,1 52577U 22051AT  22141.25001157 -.00876948  00000-0 -55806-2 0  9997,2 52577  53.2172 256.8457 0001785  33.0698 145.1516 15.78082299  1303,6714.011,91.25,337.075,334.67800000000005,0.0
52577.0,STARLINK-3836,PAYLOAD,2022-05-21 14:00:01,15.7745277,0.0002032,53.2173,255.187,25.3567,247.338,-0.0057403,-0.00876881,0.0,0 STARLINK-3836,1 52577U 22051AT  22141.58335648 -.00876881  00000-0 -57403-2 0  9999,2 52577  53.2173 255.1870 0002032  25.3567 247.3380 15.77452770  1308,6715.7980000000025,91.286,339.027,336.298,0.0
52577.0,STARLINK-3836,PAYLOAD,2022-05-21 20:00:01,15.769809699999998,0.0001406999999999,53.2174,253.9428,42.043,210.8953,-0.0058515,-0.00875083,0.0,0 STARLINK-3836,1 52577U 22051AT  22141.83334491 -.00875083  00000-0 -58515-2 0  9990,2 52577  53.2174 253.9428 0001407  42.0430 210.8953 15.76980970  1784,6717.137,91.314,339.94699999999995,338.057,0.0
52577.0,STARLINK-3836,PAYLOAD,2022-05-21 22:00:00,15.76824399,0.0001353,53.2173,253.5275,37.3059,328.975,-0.0059072,-0.0087702,0.0,0 STARLINK-3836,1 52577U 22051AT  22141.91667824 -.00877020  00000-0 -59072-2 0  9990,2 52577  53.2173 253.5275 0001353  37.3059 328.9750 15.76824399  1309,6717.581999999999,91.323,340.356,338.538,0.0
52577.0,STARLINK-3836,PAYLOAD,2022-05-22 14:00:01,15.75563996,0.0001969,53.2175,250.2142,29.9127,161.405,-0.0062261,-0.00874498,0.0,0 STARLINK-3836,1 52577U 22051AT  22142.58334491 -.00874498  00000-0 -62261-2 0  9995,2 52577  53.2175 250.2142 0001969  29.9127 161.4050 15.75563996  1905,6721.1640000000025,91.396,344.352,341.705,0.0
52577.0,STARLINK-3836,PAYLOAD,2022-05-22 22:00:01,15.74936691,0.0001385999999999,53.2172,248.55900000000003,44.3295,238.4372,-0.0064256,-0.00877392,0.0,0 STARLINK-3836,1 52577U 22051AT  22142.91668981 -.00877392  00000-0 -64256-2 0  9998,2 52577  53.2172 248.5590 0001386  44.3295 238.4372 15.74936691  1300,6722.948,91.432,345.745,343.88199999999995,0.0
52577.0,STARLINK-3836,PAYLOAD,2022-05-23 14:00:01,15.73612757,0.0002059,53.2172,245.2563,24.3931,78.8157,-0.0050966,-0.00673387,0.0,0 STARLINK-3836,1 52577U 22051AT  22143.58334491 -.00673387  00000-0 -50966-2 0  9999,2 52577  53.2172 245.2563 0002059  24.3931  78.8157 15.73612757  1307,6726.719,91.509,349.969,347.199,0.0
52577.0,STARLINK-3836,PAYLOAD,2022-05-23 16:00:00,15.73486836,0.0002031,53.2175,244.8443,27.8833,187.6662,-0.0050848,-0.00668556,0.0,0 STARLINK-3836,1 52577U 22051AT  22143.66667824 -.00668556  00000-0 -50848-2 0  9998,2 52577  53.2175 244.8443 0002031  27.8833 187.6662 15.73486836  2073,6727.078,91.516,350.309,347.576,0.0
52577.0,STARLINK-3836,PAYLOAD,2022-05-23 22:00:01,15.7317552,0.0001718,53.2174,243.607,34.714,157.6892,-0.0065584,-0.00833916,0.0,0 STARLINK-3836,1 52577U 22051AT  22143.91668981 -.00833916  00000-0 -65584-2 0  9998,2 52577  53.2174 243.6070 0001718  34.7140 157.6892 15.73175520  1306,6727.965,91.535,350.986,348.6740000000001,0.0
52577.0,STARLINK-3836,PAYLOAD,2022-05-24 04:00:00,15.7272642,0.0001817,53.2173,242.3707,32.0087,136.7956,-0.0066523,-0.00830064,0.0,0 STARLINK-3836,1 52577U 22051AT  22144.16667824 -.00830064  00000-0 -66523-2 0  9996,2 52577  53.2173 242.3707 0001817  32.0087 136.7956 15.72726420  2152,6729.246,91.561,352.333,349.88800000000015,0.0
52577.0,STARLINK-3836,PAYLOAD,2022-05-24 12:26:16,15.72460248,0.0001549,53.2228,240.6428,29.2834,330.8272,-0.0027413,-0.00357932,0.0,0 STARLINK-3836,1 52577U 22051AT  22144.51824479 -.00357932  00000-0 -27413-2 0  9999,2 52577  53.2228 240.6428 0001549  29.2834 330.8272 15.72460248  2212,6730.005,91.576,352.913,350.82800000000015,0.0
52577.0,STARLINK-3836,PAYLOAD,2022-05-24 22:00:00,15.71386311,0.0001668,53.2172,238.6718,31.3658,64.4164,-0.0070423999999999,-0.00829795,0.0,0 STARLINK-3836,1 52577U 22051AT  22144.91667824 -.00829795  00000-0 -70424-2 0  9993,2 52577  53.2172 238.6718 0001668  31.3658  64.4164 15.71386311  2272,6733.071,91.639,356.059,353.81300000000016,0.0
52577.0,STARLINK-3836,PAYLOAD,2022-05-25 14:00:01,15.701959699999998,0.0001861,53.2174,235.3899,31.7533,236.078,-0.0074204,-0.00831347,0.0,0 STARLINK-3836,1 52577U 22051AT  22145.58334491 -.00831347  00000-0 -74204-2 0  9994,2 52577  53.2174 235.3899 0001861  31.7533 236.0780 15.70195970  1301,6736.473000000001,91.708,359.592,357.085,0.0
52577.0,STARLINK-3836,PAYLOAD,2022-05-25 18:58:30,15.70111118,0.0001814,53.2228,234.3688,42.0524,318.0634,-0.0039915,-0.00465778,0.0,0 STARLINK-3836,1 52577U 22051AT  22145.79063123 -.00465778  00000-0 -39915-2 0  9999,2 52577  53.2228 234.3688 0001814  42.0524 318.0634 15.70111118  2413,6736.715999999999,91.713,359.80300000000005,357.3590000000001,0.0
52577.0,STARLINK-3836,PAYLOAD,2022-05-26 05:40:22,15.69549228,8.37e-05,53.2229,232.1756,148.1922,211.9147,-0.0020468,-0.00239898,0.0,0 STARLINK-3836,1 52577U 22051AT  22146.23637572 -.00239898  00000-0 -20468-2 0  9999,2 52577  53.2229 232.1756 0000837 148.1922 211.9147 15.69549228  2482,6738.324000000001,91.746,360.753,359.625,0.0
52577.0,STARLINK-3836,PAYLOAD,2022-05-26 06:00:00,15.69002385,0.0001988,53.2177,232.1108,24.2682,52.7518,-0.0077503,-0.00826568,0.0,0 STARLINK-3836,1 52577U 22051AT  22146.25001157 -.00826568  00000-0 -77503-2 0  9993,2 52577  53.2177 232.1108 0001988  24.2682  52.7518 15.69002385  2481,6739.889,91.778,363.094,360.415,0.0
52577.0,STARLINK-3836,PAYLOAD,2022-05-26 11:47:23,15.6896557,0.0001444,53.2231,230.924,12.1774,347.9279,-0.0021737,-0.0024843,0.0,0 STARLINK-3836,1 52577U 22051AT  22146.49124132 -.00248430  00000-0 -21737-2 0  9992,2 52577  53.2231 230.9240 0001444  12.1774 347.9279 15.68965570  2521,6739.995,91.78,362.833,360.887,0.0
52577.0,STARLINK-3836,PAYLOAD,2022-05-26 13:19:07,15.68920249,0.0001436,53.2232,230.611,10.4554,349.6494,-0.0017942999999999,-0.00205828,0.0,0 STARLINK-3836,1 52577U 22051AT  22146.55494605 -.00205828  00000-0 -17943-2 0  9992,2 52577  53.2232 230.6110 0001436  10.4554 349.6494 15.68920249  2468,6740.125,91.783,362.958,361.022,0.0
52577.0,STARLINK-3836,PAYLOAD,2022-05-26 19:26:13,15.68355098,0.0001767,53.2231,229.3588,18.1515,341.9566,-0.0026412,-0.00292716,0.0,0 STARLINK-3836,1 52577U 22051AT  22146.80988199 -.00292716  00000-0 -26412-2 0  9999,2 52577  53.2231 229.3588 0001767  18.1515 341.9566 15.68355098  2571,6741.744000000002,91.816,364.8,362.417,0.0
52577.0,STARLINK-3836,PAYLOAD,2022-05-26 20:58:01,15.68210928,0.000303,53.2234,229.0462,25.6198,334.4969,-0.0027559,-0.0030331,0.0,0 STARLINK-3836,1 52577U 22051AT  22146.87363317 -.00303310  00000-0 -27559-2 0  9991,2 52577  53.2234 229.0462 0003030  25.6198 334.4969 15.68210928  2517,6742.156999999997,91.824,366.065,361.979,0.0
52577.0,STARLINK-3836,PAYLOAD,2022-05-27 02:00:01,15.67512277,0.0001786999999999,53.2177,228.0225,29.9022,74.5756,-0.0082252999999999,-0.00824951,0.0,0 STARLINK-3836,1 52577U 22051AT  22147.08334491 -.00824951  00000-0 -82253-2 0  9997,2 52577  53.2177 228.0225 0001787  29.9022  74.5756 15.67512277  2617,6744.16,91.865,367.23,364.82,0.0
52577.0,STARLINK-3836,PAYLOAD,2022-05-27 13:48:06,15.67092709,0.0002254,53.2233,225.607,48.487,311.6341,-0.0018447,-0.00196605,0.0,0 STARLINK-3836,1 52577U 22051AT  22147.57507035 -.00196605  00000-0 -18447-2 0  9999,2 52577  53.2233 225.6070 0002254  48.4870 311.6341 15.67092709  2627,6745.364000000001,91.89,368.749,365.708,0.0
52577.0,STARLINK-3836,PAYLOAD,2022-05-27 22:00:01,15.66025518,0.0001628,53.2175,223.9443,37.354,90.1715,-0.0087825,-0.00828589,0.0,0 STARLINK-3836,1 52577U 22051AT  22147.91668981 -.00828589  00000-0 -87825-2 0  9994,2 52577  53.2175 223.9443 0001628  37.3540  90.1715 15.66025518  2742,6748.428000000001,91.953,371.392,369.194,0.0
52577.0,STARLINK-3836,PAYLOAD,2022-05-28 14:00:01,15.64834385,0.0001962,53.2178,220.6891,28.1752,258.45,-0.0092169,-0.00828873,0.0,0 STARLINK-3836,1 52577U 22051AT  22148.58334491 -.00828873  00000-0 -92169-2 0  9997,2 52577  53.2178 220.6891 0001962  28.1752 258.4500 15.64834385  1300,6751.852,92.023,375.042,372.392,0.0
